*******************************************************************************
 Revised: July 31, 2013                 Venus                           299 / 2
 
 PHYSICAL DATA (updated 2019-Apr-22):
  Vol. Mean Radius (km) =  6051.84+-0.01 Density (g/cm^3)      =  5.204
  Mass x10^23 (kg)      =    48.685      Volume (x10^10 km^3)  = 92.843
  Sidereal rot. period  =   243.018484 d Sid. Rot. Rate (rad/s)= -0.00000029924
  Mean solar day        =   116.7490 d   Equ. gravity  m/s^2   =  8.870
  Mom. of Inertia       =     0.33       Core radius (km)      = ~3200
  Geometric Albedo      =     0.65       Potential Love # k2   = ~0.25
  GM (km^3/s^2)         = 324858.592     Equatorial Radius, Re = 6051.893 km
  GM 1-sigma (km^3/s^2) =    +-0.006     Mass ratio (Sun/Venus)= 408523.72
  Atmos. pressure (bar) =  90            Max. angular diam.    =   60.2"
  Mean Temperature (K)  = 735            Visual mag. V(1,0)    =   -4.40
  Obliquity to orbit    = 177.3 deg      Hill's sphere rad.,Rp =  167.1
  Sidereal orb. per., y =   0.61519726   Orbit speed, km/s     =   35.021
  Sidereal orb. per., d = 224.70079922   Escape speed, km/s    =   10.361
                                 Perihelion  Aphelion    Mean
  Solar Constant (W/m^2)         2759        2650        2614
  Maximum Planetary IR (W/m^2)    153         153         153
  Minimum Planetary IR (W/m^2)    153         153         153
*******************************************************************************
 
 
*******************************************************************************
Ephemeris / WWW_USER Mon May  4 10:11:32 2020 Pasadena, USA      / Horizons    
*******************************************************************************
Target body name: Venus (299)                     {source: DE431mx}
Center body name: Sun (10)                        {source: DE431mx}
Center-site name: BODY CENTER
*******************************************************************************
Start time      : A.D. 2019-Oct-15 00:00:00.0000 TDB
Stop  time      : A.D. 2169-Oct-15 00:00:00.0000 TDB
Step-size       : 138240 minutes
*******************************************************************************
Center geodetic : 0.00000000,0.00000000,0.0000000 {E-lon(deg),Lat(deg),Alt(km)}
Center cylindric: 0.00000000,0.00000000,0.0000000 {E-lon(deg),Dxy(km),Dz(km)}
Center radii    : 696000.0 x 696000.0 x 696000.0 k{Equator, meridian, pole}    
Output units    : AU-D                                                         
Output type     : GEOMETRIC cartesian states
Output format   : 2 (position and velocity)
Reference frame : ICRF/J2000.0                                                 
Coordinate systm: Ecliptic and Mean Equinox of Reference Epoch                 
*******************************************************************************
            JDTDB,            Calendar Date (TDB),                      X,                      Y,                      Z,                     VX,                     VY,                     VZ,
**************************************************************************************************************************************************************************************************
$$SOE
2501203.500000000, A.D. 2135-Dec-18 00:00:00.0000, -7.185961743263907E-01, -2.497653975874745E-02,  4.104686357438228E-02,  5.830415435004317E-04, -2.030297013838384E-02, -3.186659973451339E-04,
2501299.500000000, A.D. 2136-Mar-23 00:00:00.0000,  6.577299212787993E-01, -3.086809024154695E-01, -4.222550327297817E-02,  8.479121007796509E-03,  1.822459487135522E-02, -2.325742381165652E-04,
2501395.500000000, A.D. 2136-Jun-27 00:00:00.0000, -4.506822093745574E-01,  5.585411710350030E-01,  3.380627546966803E-02, -1.581053338521482E-02, -1.281026220851841E-02,  7.309538354222466E-04,
2501491.500000000, A.D. 2136-Oct-01 00:00:00.0000,  1.651004203660161E-01, -7.083321463750941E-01, -1.945767815643886E-02,  1.956357319996356E-02,  4.522422077515908E-03, -1.063540915451116E-03,
2501587.500000000, A.D. 2137-Jan-05 00:00:00.0000,  1.747448126010983E-01,  6.990652260234270E-01, -2.506655138147369E-04, -1.968956446920602E-02,  4.806765667647894E-03,  1.201797936284427E-03,
2501683.500000000, A.D. 2137-Apr-11 00:00:00.0000, -4.536449309705033E-01, -5.641267246823537E-01,  1.820927237190992E-02,  1.562069374718491E-02, -1.276816552647129E-02, -1.079207427622163E-03,
2501779.500000000, A.D. 2137-Jul-16 00:00:00.0000,  6.638472828937100E-01,  2.888769891712522E-01, -3.418475461848196E-02, -8.136420173490063E-03,  1.845872519246250E-02,  7.279940837020526E-04,
2501875.500000000, A.D. 2137-Oct-20 00:00:00.0000, -7.185976400712040E-01,  1.763994082457957E-02,  4.164411064363673E-02, -6.132131759532808E-04, -2.030814784051691E-02, -2.499306379544898E-04,
2501971.500000000, A.D. 2138-Jan-24 00:00:00.0000,  6.387504884871186E-01, -3.465470265722659E-01, -4.166423374132298E-02,  9.526895453391566E-03,  1.769499740989271E-02, -3.002641816030252E-04,
2502067.500000000, A.D. 2138-Apr-30 00:00:00.0000, -4.167110408255980E-01,  5.844076414064692E-01,  3.221430255233892E-02, -1.653828101714325E-02, -1.185256964723965E-02,  7.862332773964540E-04,
2502163.500000000, A.D. 2138-Aug-04 00:00:00.0000,  1.236717622269891E-01, -7.166733519816829E-01, -1.719099697537790E-02,  1.979629450086228E-02,  3.370132407050462E-03, -1.093058041151339E-03,
2502259.500000000, A.D. 2138-Nov-08 00:00:00.0000,  2.158810258784495E-01,  6.877208998304029E-01, -2.772724829520747E-03, -1.936432349685901E-02,  5.961590184044679E-03,  1.199267765234673E-03,
2502355.500000000, A.D. 2139-Feb-12 00:00:00.0000, -4.856906607430961E-01, -5.362771017206381E-01,  2.044320849493935E-02,  1.485074434686272E-02, -1.367134115357839E-02, -1.047589665399685E-03,
2502451.500000000, A.D. 2139-May-19 00:00:00.0000,  6.798052658087587E-01,  2.496731010435746E-01, -3.565208007996478E-02, -7.039493901502589E-03,  1.889747960146726E-02,  6.710517435146526E-04,
2502547.500000000, A.D. 2139-Aug-23 00:00:00.0000, -7.160347727880888E-01,  6.037328492973618E-02,  4.209549905112678E-02, -1.811155929891122E-03, -2.024325240334748E-02, -1.801227470188603E-04,
2502643.500000000, A.D. 2139-Nov-27 00:00:00.0000,  6.176746467933025E-01, -3.830485015514802E-01, -4.096355266592953E-02,  1.053957711156418E-02,  1.710779537313336E-02, -3.667278016968175E-04,
2502739.500000000, A.D. 2140-Mar-02 00:00:00.0000, -3.812167462378983E-01,  6.083229367913960E-01,  3.050814300700793E-02, -1.720694528127614E-02, -1.085167575034152E-02,  8.387003218220337E-04,
2502835.500000000, A.D. 2140-Jun-06 00:00:00.0000,  8.187039196826726E-02, -7.225313781167850E-01, -1.487172546412071E-02,  1.996261035132462E-02,  2.206188458072327E-03, -1.118941911518253E-03,
2502931.500000000, A.D. 2140-Sep-10 00:00:00.0000,  2.562123431763849E-01,  6.739730722160299E-01, -5.285563480290133E-03, -1.897254498105029E-02,  7.092385858809120E-03,  1.192605255993728E-03,
2503027.500000000, A.D. 2140-Dec-15 00:00:00.0000, -5.159833949968367E-01, -5.067079995668059E-01,  2.260044161329911E-02,  1.402950952274748E-02, -1.452631494308710E-02, -1.012358348961091E-03,
2503123.500000000, A.D. 2141-Mar-21 00:00:00.0000,  6.934668511622432E-01,  2.094798537283164E-01, -3.700209361248143E-02, -5.918288973426848E-03,  1.927200850422169E-02,  6.118334310877336E-04,
2503219.500000000, A.D. 2141-Jun-25 00:00:00.0000, -7.109430812016851E-01,  1.027521689204939E-01,  4.239807527718804E-02, -3.001513106193284E-03, -2.010821982450182E-02, -1.097744021851020E-04,
2503315.500000000, A.D. 2141-Sep-29 00:00:00.0000,  5.945187059882696E-01, -4.183597003451480E-01, -4.012842978987065E-02,  1.151605528797922E-02,  1.646094559412502E-02, -4.319694503125079E-04,
2503411.500000000, A.D. 2142-Jan-03 00:00:00.0000, -3.443548882679242E-01,  6.300829995504946E-01,  2.869551119113418E-02, -1.781603774086359E-02, -9.811598334665085E-03,  8.883477567987258E-04,
2503507.500000000, A.D. 2142-Apr-09 00:00:00.0000,  3.971107573597009E-02, -7.259154597168495E-01, -1.249430934988331E-02,  2.006175326779835E-02,  1.033098369294853E-03, -1.141133850654587E-03,
2503603.500000000, A.D. 2142-Jul-14 00:00:00.0000,  2.955423545702924E-01,  6.579379092557136E-01, -7.773678537701598E-03, -1.851530185120523E-02,  8.196173651635229E-03,  1.181821339425266E-03,
2503699.500000000, A.D. 2142-Oct-18 00:00:00.0000, -5.446677530396580E-01, -4.752284645981119E-01,  2.469354684795558E-02,  1.315598290509096E-02, -1.533439764717418E-02, -9.734690258846384E-04,
2503795.500000000, A.D. 2143-Jan-22 00:00:00.0000,  7.046597577706316E-01,  1.686630604506919E-01, -3.822058592146452E-02, -4.779930941033774E-03,  1.958106514136578E-02,  5.506789869328026E-04,
2503891.500000000, A.D. 2143-Apr-28 00:00:00.0000, -7.034386388737388E-01,  1.448372395439658E-01,  4.255841302138138E-02, -4.182677616965476E-03, -1.989988760279359E-02, -3.887007711718265E-05,
2503987.500000000, A.D. 2143-Aug-02 00:00:00.0000,  5.692768844779825E-01, -4.522498649635659E-01, -3.915191770515011E-02,  1.245570805035783E-02,  1.575889876403610E-02, -4.958937630413657E-04,
2504083.500000000, A.D. 2143-Nov-06 00:00:00.0000, -3.062876689138865E-01,  6.495885476726557E-01,  2.677816492173372E-02, -1.836175690250933E-02, -8.738823481560761E-03,  9.348066709378522E-04,
2504179.500000000, A.D. 2144-Feb-10 00:00:00.0000, -2.412471636147784E-03, -7.268400475966197E-01, -1.008237200316765E-02,  2.009230159180495E-02, -1.413445960722130E-04, -1.159367021029976E-03,
2504275.500000000, A.D. 2144-May-16 00:00:00.0000,  3.339798683976345E-01,  6.395799787901109E-01, -1.024388229731422E-02, -1.799288133428058E-02,  9.271056251809918E-03,  1.166820641977456E-03,
2504371.500000000, A.D. 2144-Aug-20 00:00:00.0000, -5.713156279996193E-01, -4.421990871862109E-01,  2.669058438412772E-02,  1.223890945470081E-02, -1.608941850187940E-02, -9.312594060254758E-04,
